OBJECT B                
1 51825U 22019B   24157.90610940  .00013234  00000+0  58591-3 0  9996
2 51825  97.4297 229.3868 0012904 277.3844  82.5925 15.21702914125517
